*******************************************************************************
Ephemeris / WWW_USER Mon Jul 15 19:06:50 2024 Pasadena, USA      / Horizons    
*******************************************************************************
Target body name: (2017 SN16)                     {source: JPL#20}
Center body name: Earth (399)                     {source: DE441}
Center-site name: Gemini South Obs., Cerro Pachon
*******************************************************************************
Start time      : A.D. 2019-Jan-20 23:56:00.0000 UT      
Stop  time      : A.D. 2019-Jan-21 09:52:00.0000 UT      
Step-size       : 1 minutes
*******************************************************************************
Target pole/equ : undefined
Target radii    : undefined                                                    
Center geodetic : 289.2634, -30.2406227, 2.71233  {E-lon(deg),Lat(deg),Alt(km)}
Center cylindric: 289.2634,5517.21435,-3194.81213 {E-lon(deg),Dxy(km),Dz(km)}
Center pole/equ : ITRF93                          {East-longitude positive}
Center radii    : 6378.137, 6378.137, 6356.752 km {Equator_a, b, pole_c}       
Target primary  : Sun
Vis. interferer : MOON (R_eq= 1737.400) km        {source: DE441}
Rel. light bend : Sun                             {source: DE441}
Rel. lght bnd GM: 1.3271E+11 km^3/s^2                                          
Small-body perts: Yes                             {source: SB441-N16}
Atmos refraction: NO (AIRLESS)
RA format       : HMS
Time format     : CAL 
Calendar mode   : Mixed Julian/Gregorian
RTS-only print  : NO       
EOP file        : eop.240715.p241008                                           
EOP coverage    : DATA-BASED 1962-JAN-20 TO 2024-JUL-15. PREDICTS-> 2024-OCT-07
Units conversion: 1 au= 149597870.700 km, c= 299792.458 km/s, 1 day= 86400.0 s 
Table cut-offs 1: Elevation (-90.0deg=NO ),Airmass (>38.000=NO), Daylight (YES)
Table cut-offs 2: Solar elongation (  0.0,180.0=NO ),Local Hour Angle( 0.0=NO )
Table cut-offs 3: RA/DEC angular rate (     0.0=NO )                           
*******************************************************************************
Initial IAU76/J2000 heliocentric ecliptic osculating elements (au, days, deg.):
  EPOCH=  2458305.5 ! 2018-Jul-06.00 (TDB)         Residual RMS= .23751        
   EC= .1454884975659386   QR= .8682464985612274   TP= 2458145.5722438502      
   OM= 2.759719470837934   W=  137.1017088998531   IN= 13.38264682844635       
  Equivalent ICRF heliocentric cartesian coordinates (au, au/d):
   X= 5.756755401261899E-01  Y=-7.953424559592890E-01  Z=-6.031561894536019E-01
  VX= 1.332076113263395E-02 VY= 5.454663564585547E-03 VZ= 3.896229736425836E-03
Asteroid physical parameters (km, seconds, rotational period in hours):        
   GM= n.a.                RAD= n.a.               ROTPER= n.a.                
   H= 23.34                G= .150                 B-V= n.a.                   
                           ALBEDO= n.a.            STYP= n.a.                  
*******************************************************************************
 Date__(UT)__HR:MN     R.A._________(ICRF)_________DEC
******************************************************
$$SOE
 2019-Jan-21 01:59  m  19 13 10.771048 +32 42 47.61682
 2019-Jan-21 02:00  m  19 13 10.703372 +32 42 46.07096
 2019-Jan-21 02:01  m  19 13 10.635722 +32 42 44.52536
 2019-Jan-21 02:02  m  19 13 10.568099 +32 42 42.98000
 2019-Jan-21 02:03  m  19 13 10.500502 +32 42 41.43490
 2019-Jan-21 02:04  m  19 13 10.432931 +32 42 39.89005
 2019-Jan-21 02:05  m  19 13 10.365386 +32 42 38.34545
 2019-Jan-21 02:06  m  19 13 10.297866 +32 42 36.80110
 2019-Jan-21 02:07  m  19 13 10.230372 +32 42 35.25701
 2019-Jan-21 02:08  m  19 13 10.162903 +32 42 33.71318
 2019-Jan-21 02:09  m  19 13 10.095459 +32 42 32.16960
 2019-Jan-21 02:10  m  19 13 10.028040 +32 42 30.62628
 2019-Jan-21 02:11  m  19 13 09.960646 +32 42 29.08321
 2019-Jan-21 02:12  m  19 13 09.893276 +32 42 27.54040
 2019-Jan-21 02:13  m  19 13 09.825930 +32 42 25.99786
 2019-Jan-21 02:14  m  19 13 09.758608 +32 42 24.45557
 2019-Jan-21 02:15  m  19 13 09.691310 +32 42 22.91354
 2019-Jan-21 02:16  m  19 13 09.624035 +32 42 21.37177
 2019-Jan-21 02:17  m  19 13 09.556784 +32 42 19.83027
 2019-Jan-21 02:18  m  19 13 09.489556 +32 42 18.28902
 2019-Jan-21 02:19  m  19 13 09.422351 +32 42 16.74804
 2019-Jan-21 02:20  m  19 13 09.355169 +32 42 15.20733
 2019-Jan-21 02:21  m  19 13 09.288009 +32 42 13.66687
 2019-Jan-21 02:22  m  19 13 09.220871 +32 42 12.12668
 2019-Jan-21 02:23  m  19 13 09.153756 +32 42 10.58676
 2019-Jan-21 02:24  m  19 13 09.086663 +32 42 09.04710
 2019-Jan-21 02:25  m  19 13 09.019591 +32 42 07.50771
 2019-Jan-21 02:26  m  19 13 08.952541 +32 42 05.96859
 2019-Jan-21 02:27  m  19 13 08.885512 +32 42 04.42973
 2019-Jan-21 02:28  m  19 13 08.818504 +32 42 02.89115
 2019-Jan-21 02:29  m  19 13 08.751516 +32 42 01.35283
 2019-Jan-21 02:30  m  19 13 08.684550 +32 41 59.81478
 2019-Jan-21 02:31  m  19 13 08.617604 +32 41 58.27700
 2019-Jan-21 02:32  m  19 13 08.550678 +32 41 56.73949
 2019-Jan-21 02:33  m  19 13 08.483772 +32 41 55.20226
 2019-Jan-21 02:34  m  19 13 08.416886 +32 41 53.66529
 2019-Jan-21 02:35  m  19 13 08.350019 +32 41 52.12860
 2019-Jan-21 02:36  m  19 13 08.283172 +32 41 50.59218
 2019-Jan-21 02:37  m  19 13 08.216344 +32 41 49.05604
 2019-Jan-21 02:38  m  19 13 08.149535 +32 41 47.52016
 2019-Jan-21 02:39  m  19 13 08.082745 +32 41 45.98457
 2019-Jan-21 02:40  m  19 13 08.015973 +32 41 44.44925
 2019-Jan-21 02:41  m  19 13 07.949219 +32 41 42.91420
 2019-Jan-21 02:42  m  19 13 07.882483 +32 41 41.37943
 2019-Jan-21 02:43  m  19 13 07.815765 +32 41 39.84493
 2019-Jan-21 02:44  m  19 13 07.749065 +32 41 38.31072
 2019-Jan-21 02:45  m  19 13 07.682382 +32 41 36.77678
 2019-Jan-21 02:46  m  19 13 07.615717 +32 41 35.24312
 2019-Jan-21 02:47  m  19 13 07.549068 +32 41 33.70973
 2019-Jan-21 02:48  m  19 13 07.482436 +32 41 32.17663
 2019-Jan-21 02:49  m  19 13 07.415821 +32 41 30.64381
 2019-Jan-21 02:50  m  19 13 07.349221 +32 41 29.11126
 2019-Jan-21 02:51  m  19 13 07.282638 +32 41 27.57900
 2019-Jan-21 02:52  m  19 13 07.216071 +32 41 26.04701
 2019-Jan-21 02:53  m  19 13 07.149520 +32 41 24.51531
 2019-Jan-21 02:54  m  19 13 07.082983 +32 41 22.98389
 2019-Jan-21 02:55  m  19 13 07.016463 +32 41 21.45275
 2019-Jan-21 02:56  m  19 13 06.949957 +32 41 19.92190
 2019-Jan-21 02:57  m  19 13 06.883465 +32 41 18.39132
 2019-Jan-21 02:58  m  19 13 06.816989 +32 41 16.86103
 2019-Jan-21 02:59  m  19 13 06.750526 +32 41 15.33103
 2019-Jan-21 03:00  m  19 13 06.684078 +32 41 13.80130
 2019-Jan-21 03:01  m  19 13 06.617644 +32 41 12.27187
 2019-Jan-21 03:02  m  19 13 06.551223 +32 41 10.74271
 2019-Jan-21 03:03  m  19 13 06.484815 +32 41 09.21384
 2019-Jan-21 03:04  m  19 13 06.418421 +32 41 07.68526
 2019-Jan-21 03:05  m  19 13 06.352040 +32 41 06.15696
 2019-Jan-21 03:06  m  19 13 06.285672 +32 41 04.62895
 2019-Jan-21 03:07  m  19 13 06.219316 +32 41 03.10123
 2019-Jan-21 03:08  m  19 13 06.152972 +32 41 01.57379
 2019-Jan-21 03:09  m  19 13 06.086641 +32 41 00.04664
 2019-Jan-21 03:10  m  19 13 06.020321 +32 40 58.51978
 2019-Jan-21 03:11  m  19 13 05.954013 +32 40 56.99321
 2019-Jan-21 03:12  m  19 13 05.887716 +32 40 55.46692
 2019-Jan-21 03:13  m  19 13 05.821431 +32 40 53.94092
 2019-Jan-21 03:14  m  19 13 05.755156 +32 40 52.41521
 2019-Jan-21 03:15  m  19 13 05.688893 +32 40 50.88979
 2019-Jan-21 03:16  m  19 13 05.622639 +32 40 49.36466
 2019-Jan-21 03:17  m  19 13 05.556396 +32 40 47.83982
 2019-Jan-21 03:18  m  19 13 05.490163 +32 40 46.31527
 2019-Jan-21 03:19  m  19 13 05.423940 +32 40 44.79101
 2019-Jan-21 03:20  m  19 13 05.357727 +32 40 43.26704
 2019-Jan-21 03:21  m  19 13 05.291522 +32 40 41.74336
 2019-Jan-21 03:22  m  19 13 05.225327 +32 40 40.21997
 2019-Jan-21 03:23  m  19 13 05.159141 +32 40 38.69687
 2019-Jan-21 03:24  m  19 13 05.092964 +32 40 37.17406
 2019-Jan-21 03:25  m  19 13 05.026795 +32 40 35.65155
 2019-Jan-21 03:26  m  19 13 04.960634 +32 40 34.12933
 2019-Jan-21 03:27  m  19 13 04.894482 +32 40 32.60739
 2019-Jan-21 03:28  m  19 13 04.828337 +32 40 31.08575
 2019-Jan-21 03:29  m  19 13 04.762199 +32 40 29.56441
 2019-Jan-21 03:30  m  19 13 04.696069 +32 40 28.04335
 2019-Jan-21 03:31  m  19 13 04.629946 +32 40 26.52259
 2019-Jan-21 03:32  m  19 13 04.563830 +32 40 25.00212
 2019-Jan-21 03:33  m  19 13 04.497721 +32 40 23.48195
 2019-Jan-21 03:34  m  19 13 04.431618 +32 40 21.96206
 2019-Jan-21 03:35  m  19 13 04.365521 +32 40 20.44247
 2019-Jan-21 03:36  m  19 13 04.299430 +32 40 18.92318
 2019-Jan-21 03:37  m  19 13 04.233345 +32 40 17.40417
 2019-Jan-21 03:38  m  19 13 04.167265 +32 40 15.88547
 2019-Jan-21 03:39  m  19 13 04.101191 +32 40 14.36705
 2019-Jan-21 03:40  m  19 13 04.035121 +32 40 12.84893
 2019-Jan-21 03:41  m  19 13 03.969057 +32 40 11.33110
 2019-Jan-21 03:42  m  19 13 03.902997 +32 40 09.81357
 2019-Jan-21 03:43  m  19 13 03.836941 +32 40 08.29633
 2019-Jan-21 03:44  m  19 13 03.770890 +32 40 06.77939
 2019-Jan-21 03:45  m  19 13 03.704842 +32 40 05.26274
 2019-Jan-21 03:46  m  19 13 03.638798 +32 40 03.74638
 2019-Jan-21 03:47  m  19 13 03.572758 +32 40 02.23032
 2019-Jan-21 03:48  m  19 13 03.506720 +32 40 00.71456
 2019-Jan-21 03:49  m  19 13 03.440686 +32 39 59.19909
 2019-Jan-21 03:50  m  19 13 03.374655 +32 39 57.68391
 2019-Jan-21 03:51  m  19 13 03.308625 +32 39 56.16903
 2019-Jan-21 03:52  m  19 13 03.242599 +32 39 54.65444
 2019-Jan-21 03:53  m  19 13 03.176574 +32 39 53.14015
 2019-Jan-21 03:54  m  19 13 03.110551 +32 39 51.62616
 2019-Jan-21 03:55  m  19 13 03.044530 +32 39 50.11245
 2019-Jan-21 03:56  m  19 13 02.978510 +32 39 48.59905
 2019-Jan-21 03:57  m  19 13 02.912491 +32 39 47.08593
 2019-Jan-21 03:58  m  19 13 02.846474 +32 39 45.57312
 2019-Jan-21 03:59  m  19 13 02.780456 +32 39 44.06060
 2019-Jan-21 04:00  m  19 13 02.714440 +32 39 42.54837
 2019-Jan-21 04:01  m  19 13 02.648423 +32 39 41.03644
